[
  {
    "OBJECT_NAME": "STARLINK-32418",
    "OBJECT_ID": "2024-249W",
    "EPOCH": "2025-05-17T13:36:05.918688",
    "MEAN_MOTION": 15.40697569,
    "ECCENTRICITY": 0.0001064,
    "INCLINATION": 43.0022,
    "RA_OF_ASC_NODE": 188.309,
    "ARG_OF_PERICENTER": 272.3396,
    "MEAN_ANOMALY": 87.7339,
    "EPHEMERIS_TYPE": 0,
    "CLASSIFICATION_TYPE": "U",
    "NORAD_CAT_ID": 62429,
    "ELEMENT_SET_NO": 999,
    "REV_AT_EPOCH": 2250,
    "BSTAR": 1.6876e-05,
    "MEAN_MOTION_DOT": 4.02e-06,
    "MEAN_MOTION_DDOT": 0
  },
  {
    "OBJECT_NAME": "STARLINK-32702",
    "OBJECT_ID": "2024-251A",
    "EPOCH": "2025-05-17T17:56:39.193440",
    "MEAN_MOTION": 15.39635934,
    "ECCENTRICITY": 0.0001513,
    "INCLINATION": 53.161,
    "RA_OF_ASC_NODE": 271.6874,
    "ARG_OF_PERICENTER": 66.9767,
    "MEAN_ANOMALY": 293.1397,
    "EPHEMERIS_TYPE": 0,
    "CLASSIFICATION_TYPE": "U",
    "NORAD_CAT_ID": 62432,
    "ELEMENT_SET_NO": 999,
    "REV_AT_EPOCH": 2261,
    "BSTAR": 5.0125e-05,
    "MEAN_MOTION_DOT": 1.607e-05,
    "MEAN_MOTION_DDOT": 0
  },
  {
    "OBJECT_NAME": "STARLINK-32712",
    "OBJECT_ID": "2024-251B",
    "EPOCH": "2025-05-17T12:29:24.616320",
    "MEAN_MOTION": 15.39625008,
    "ECCENTRICITY": 0.0001101,
    "INCLINATION": 53.161,
    "RA_OF_ASC_NODE": 272.3941,
    "ARG_OF_PERICENTER": 90.4776,
    "MEAN_ANOMALY": 269.6355,
    "EPHEMERIS_TYPE": 0,
    "CLASSIFICATION_TYPE": "U",
    "NORAD_CAT_ID": 62433,
    "ELEMENT_SET_NO": 999,
    "REV_AT_EPOCH": 2258,
    "BSTAR": 2.6781e-05,
    "MEAN_MOTION_DOT": 6.72e-06,
    "MEAN_MOTION_DDOT": 0
  },
  {
    "OBJECT_NAME": "STARLINK-32674",
    "OBJECT_ID": "2024-251C",
    "EPOCH": "2025-05-17T18:23:23.526528",
    "MEAN_MOTION": 15.39634703,
    "ECCENTRICITY": 9.27e-05,
    "INCLINATION": 53.1589,
    "RA_OF_ASC_NODE": 271.8017,
    "ARG_OF_PERICENTER": 54.3514,
    "MEAN_ANOMALY": 305.7577,
    "EPHEMERIS_TYPE": 0,
    "CLASSIFICATION_TYPE": "U",
    "NORAD_CAT_ID": 62434,
    "ELEMENT_SET_NO": 999,
    "REV_AT_EPOCH": 2261,
    "BSTAR": 0.00011613,
    "MEAN_MOTION_DOT": 4.251e-05,
    "MEAN_MOTION_DDOT": 0
  },
  {
    "OBJECT_NAME": "STARLINK-32711",
    "OBJECT_ID": "2024-251D",
    "EPOCH": "2025-05-17T09:42:31.372992",
    "MEAN_MOTION": 15.39626109,
    "ECCENTRICITY": 5.8e-05,
    "INCLINATION": 53.1591,
    "RA_OF_ASC_NODE": 273.0934,
    "ARG_OF_PERICENTER": 84.9152,
    "MEAN_ANOMALY": 275.1919,
    "EPHEMERIS_TYPE": 0,
    "CLASSIFICATION_TYPE": "U",
    "NORAD_CAT_ID": 62435,
    "ELEMENT_SET_NO": 999,
    "REV_AT_EPOCH": 2256,
    "BSTAR": 3.5248e-05,
    "MEAN_MOTION_DOT": 1.012e-05,
    "MEAN_MOTION_DDOT": 0
  },
  {
    "OBJECT_NAME": "STARLINK-32697",
    "OBJECT_ID": "2024-251E",
    "EPOCH": "2025-05-17T02:34:47.174016",
    "MEAN_MOTION": 15.39621204,
    "ECCENTRICITY": 0.0001117,
    "INCLINATION": 53.1602,
    "RA_OF_ASC_NODE": 274.7957,
    "ARG_OF_PERICENTER": 107.167,
    "MEAN_ANOMALY": 252.9457,
    "EPHEMERIS_TYPE": 0,
    "CLASSIFICATION_TYPE": "U",
    "NORAD_CAT_ID": 62436,
    "ELEMENT_SET_NO": 999,
    "REV_AT_EPOCH": 2251,
    "BSTAR": -6.004e-06,
    "MEAN_MOTION_DOT": -6.39e-06,
    "MEAN_MOTION_DDOT": 0
  },
  {
    "OBJECT_NAME": "STARLINK-32693",
    "OBJECT_ID": "2024-251F",
    "EPOCH": "2025-05-17T17:55:36.518016",
    "MEAN_MOTION": 15.39629178,
    "ECCENTRICITY": 0.0001145,
    "INCLINATION": 53.1611,
    "RA_OF_ASC_NODE": 268.7668,
    "ARG_OF_PERICENTER": 84.7692,
    "MEAN_ANOMALY": 275.3443,
    "EPHEMERIS_TYPE": 0,
    "CLASSIFICATION_TYPE": "U",
    "NORAD_CAT_ID": 62437,
    "ELEMENT_SET_NO": 999,
    "REV_AT_EPOCH": 2265,
    "BSTAR": 7.9729e-05,
    "MEAN_MOTION_DOT": 2.792e-05,
    "MEAN_MOTION_DDOT": 0
  },
  {
    "OBJECT_NAME": "STARLINK-32721",
    "OBJECT_ID": "2024-251G",
    "EPOCH": "2025-05-17T12:22:43.039488",
    "MEAN_MOTION": 15.3961164,
    "ECCENTRICITY": 6.16e-05,
    "INCLINATION": 53.1611,
    "RA_OF_ASC_NODE": 272.3725,
    "ARG_OF_PERICENTER": 62.1996,
    "MEAN_ANOMALY": 297.9071,
    "EPHEMERIS_TYPE": 0,
    "CLASSIFICATION_TYPE": "U",
    "NORAD_CAT_ID": 62438,
    "ELEMENT_SET_NO": 999,
    "REV_AT_EPOCH": 2252,
    "BSTAR": 9.8715e-05,
    "MEAN_MOTION_DOT": 3.55e-05,
    "MEAN_MOTION_DDOT": 0
  },
  {
    "OBJECT_NAME": "STARLINK-32709",
    "OBJECT_ID": "2024-251H",
    "EPOCH": "2025-05-17T15:09:17.297280",
    "MEAN_MOTION": 15.39615869,
    "ECCENTRICITY": 0.0001123,
    "INCLINATION": 53.1612,
    "RA_OF_ASC_NODE": 272.38,
    "ARG_OF_PERICENTER": 72.3457,
    "MEAN_ANOMALY": 287.7671,
    "EPHEMERIS_TYPE": 0,
    "CLASSIFICATION_TYPE": "U",
    "NORAD_CAT_ID": 62439,
    "ELEMENT_SET_NO": 999,
    "REV_AT_EPOCH": 2259,
    "BSTAR": 2.4239e-05,
    "MEAN_MOTION_DOT": 5.7e-06,
    "MEAN_MOTION_DDOT": 0
  },
  {
    "OBJECT_NAME": "STARLINK-32689",
    "OBJECT_ID": "2024-251J",
    "EPOCH": "2025-05-17T12:36:05.893344",
    "MEAN_MOTION": 15.39624972,
    "ECCENTRICITY": 0.0001378,
    "INCLINATION": 53.1618,
    "RA_OF_ASC_NODE": 272.4235,
    "ARG_OF_PERICENTER": 114.1999,
    "MEAN_ANOMALY": 245.915,
    "EPHEMERIS_TYPE": 0,
    "CLASSIFICATION_TYPE": "U",
    "NORAD_CAT_ID": 62440,
    "ELEMENT_SET_NO": 999,
    "REV_AT_EPOCH": 2258,
    "BSTAR": 2.7166e-05,
    "MEAN_MOTION_DOT": 6.87e-06,
    "MEAN_MOTION_DDOT": 0
  },
  {
    "OBJECT_NAME": "STARLINK-32724",
    "OBJECT_ID": "2024-251K",
    "EPOCH": "2025-05-17T02:35:15.501984",
    "MEAN_MOTION": 15.39620519,
    "ECCENTRICITY": 0.0001411,
    "INCLINATION": 53.1602,
    "RA_OF_ASC_NODE": 274.7951,
    "ARG_OF_PERICENTER": 124.4863,
    "MEAN_ANOMALY": 235.6275,
    "EPHEMERIS_TYPE": 0,
    "CLASSIFICATION_TYPE": "U",
    "NORAD_CAT_ID": 62441,
    "ELEMENT_SET_NO": 999,
    "REV_AT_EPOCH": 2235,
    "BSTAR": 5.2175e-06,
    "MEAN_MOTION_DOT": -1.91e-06,
    "MEAN_MOTION_DDOT": 0
  },
  {
    "OBJECT_NAME": "STARLINK-32291",
    "OBJECT_ID": "2024-251L",
    "EPOCH": "2025-05-17T09:35:21.698880",
    "MEAN_MOTION": 15.39627411,
    "ECCENTRICITY": 0.0001041,
    "INCLINATION": 53.16,
    "RA_OF_ASC_NODE": 273.0602,
    "ARG_OF_PERICENTER": 68.6516,
    "MEAN_ANOMALY": 291.46,
    "EPHEMERIS_TYPE": 0,
    "CLASSIFICATION_TYPE": "U",
    "NORAD_CAT_ID": 62442,
    "ELEMENT_SET_NO": 999,
    "REV_AT_EPOCH": 2225,
    "BSTAR": 1.2154e-05,
    "MEAN_MOTION_DOT": 8.7e-07,
    "MEAN_MOTION_DDOT": 0
  },
  {
    "OBJECT_NAME": "STARLINK-32736",
    "OBJECT_ID": "2024-251M",
    "EPOCH": "2025-05-17T18:14:29.316192",
    "MEAN_MOTION": 15.41393181,
    "ECCENTRICITY": 0.0007581,
    "INCLINATION": 53.1598,
    "RA_OF_ASC_NODE": 271.7607,
    "ARG_OF_PERICENTER": 356.77,
    "MEAN_ANOMALY": 3.3256,
    "EPHEMERIS_TYPE": 0,
    "CLASSIFICATION_TYPE": "U",
    "NORAD_CAT_ID": 62443,
    "ELEMENT_SET_NO": 999,
    "REV_AT_EPOCH": 2244,
    "BSTAR": 0.0057841,
    "MEAN_MOTION_DOT": 0.0025337,
    "MEAN_MOTION_DDOT": 0
  },
  {
    "OBJECT_NAME": "STARLINK-32737",
    "OBJECT_ID": "2024-251N",
    "EPOCH": "2025-05-17T16:09:19.283040",
    "MEAN_MOTION": 15.39626538,
    "ECCENTRICITY": 0.0001474,
    "INCLINATION": 53.1603,
    "RA_OF_ASC_NODE": 271.926,
    "ARG_OF_PERICENTER": 51.6787,
    "MEAN_ANOMALY": 308.435,
    "EPHEMERIS_TYPE": 0,
    "CLASSIFICATION_TYPE": "U",
    "NORAD_CAT_ID": 62444,
    "ELEMENT_SET_NO": 999,
    "REV_AT_EPOCH": 2259,
    "BSTAR": 5.7261e-05,
    "MEAN_MOTION_DOT": 1.892e-05,
    "MEAN_MOTION_DDOT": 0
  }
]