STARLINK-32418          
1 62429U 24249W   25137.56673517  .00000402  00000+0  16876-4 0  9999
2 62429  43.0022 188.3090 0001064 272.3396  87.7339 15.40697569 22506
STARLINK-32702          
1 62432U 24251A   25137.74767585  .00001607  00000+0  50125-4 0  9998
2 62432  53.1610 271.6874 0001513  66.9767 293.1397 15.39635934 22614
STARLINK-32712          
1 62433U 24251B   25137.52042380  .00000672  00000+0  26781-4 0  9996
2 62433  53.1610 272.3941 0001101  90.4776 269.6355 15.39625008 22582
STARLINK-32674          
1 62434U 24251C   25137.76624452  .00004251  00000+0  11613-3 0  9993
2 62434  53.1589 271.8017 0000927  54.3514 305.7577 15.39634703 22614
STARLINK-32711          
1 62435U 24251D   25137.40452978  .00001012  00000+0  35248-4 0  9990
2 62435  53.1591 273.0934 0000580  84.9152 275.1919 15.39626109 22567
STARLINK-32697          
1 62436U 24251E   25137.10749044 -.00000639  00000+0 -60040-5 0  9996
2 62436  53.1602 274.7957 0001117 107.1670 252.9457 15.39621204 22510
STARLINK-32693          
1 62437U 24251F   25137.74695044  .00002792  00000+0  79729-4 0  9990
2 62437  53.1611 268.7668 0001145  84.7692 275.3443 15.39629178 22655
STARLINK-32721          
1 62438U 24251G   25137.51577592  .00003550  00000+0  98715-4 0  9992
2 62438  53.1611 272.3725 0000616  62.1996 297.9071 15.39611640 22528
STARLINK-32709          
1 62439U 24251H   25137.63145020  .00000570  00000+0  24239-4 0  9992
2 62439  53.1612 272.3800 0001123  72.3457 287.7671 15.39615869 22590
STARLINK-32689          
1 62440U 24251J   25137.52506821  .00000687  00000+0  27166-4 0  9993
2 62440  53.1618 272.4235 0001378 114.1999 245.9150 15.39624972 22581
STARLINK-32724          
1 62441U 24251K   25137.10781831 -.00000191  00000+0  52175-5 0  9994
2 62441  53.1602 274.7951 0001411 124.4863 235.6275 15.39620519 22359
STARLINK-32291          
1 62442U 24251L   25137.39955670  .00000087  00000+0  12154-4 0  9995
2 62442  53.1600 273.0602 0001041  68.6516 291.4600 15.39627411 22255
STARLINK-32736          
1 62443U 24251M   25137.76006153  .00253370  00000+0  57841-2 0  9995
2 62443  53.1598 271.7607 0007581 356.7700   3.3256 15.41393181 22448
STARLINK-32737          
1 62444U 24251N   25137.67313985  .00001892  00000+0  57261-4 0  9998
2 62444  53.1603 271.9260 0001474  51.6787 308.4350 15.39626538 22596
